NORAD_CAT_ID,OBJECT_NAME,OBJECT_TYPE,EPOCH,MEAN_MOTION,ECCENTRICITY,INCLINATION,RA_OF_ASC_NODE,ARG_OF_PERICENTER,MEAN_ANOMALY,BSTAR,MEAN_MOTION_DOT,MEAN_MOTION_DDOT,TLE_LINE0,TLE_LINE1,TLE_LINE2,SEMIMAJOR_AXIS,PERIOD,APOGEE,PERIGEE,DECAYED
54801.0,STARLINK-5429,PAYLOAD,2024-02-19 00:58:03,15.08836817,0.0001834,53.2163,168.9882,94.6078,265.5124,0.0001552,2.183e-05,0.0,0 STARLINK-5429,1 54801U 22175AV  24050.04032307  .00002183  00000-0  15520-3 0  9995,2 54801  53.2163 168.9882 0001834  94.6078 265.5124 15.08836817 64598,6917.89,95.438,541.024,538.486,0.0
54801.0,STARLINK-5429,PAYLOAD,2024-02-19 13:41:09,15.08833282,0.0001879,53.2166,166.609,100.2268,259.8936,-3.4956e-05,-8.44e-06,0.0,0 STARLINK-5429,1 54801U 22175AV  24050.57024592 -.00000844  00000-0 -34956-4 0  9999,2 54801  53.2166 166.6090 0001879 100.2268 259.8936 15.08833282 66830,6917.901,95.438,541.066,538.466,0.0
54801.0,STARLINK-5429,PAYLOAD,2024-02-19 16:51:55,15.08829075,0.0001768,53.2168,166.0155,68.1255,291.9925,-6.5994e-05,-1.338e-05,0.0,0 STARLINK-5429,1 54801U 22175AV  24050.70273091 -.00001338  00000-0 -65994-4 0  9999,2 54801  53.2168 166.0155 0001768  68.1255 291.9925 15.08829075 64695,6917.914,95.438,541.002,538.556,0.0
54801.0,STARLINK-5429,PAYLOAD,2024-02-20 13:31:57,15.08827673,0.0001343,53.2146,162.1519,108.6946,251.4192,-1.2869e-06,-3.08e-06,0.0,0 STARLINK-5429,1 54801U 22175AV  24051.56385929 -.00000308  00000-0 -12869-5 0  9998,2 54801  53.2146 162.1519 0001343 108.6946 251.4192 15.08827673 66981,6917.918,95.438,540.712,538.854,0.0
54801.0,STARLINK-5429,PAYLOAD,2024-02-20 15:07:20,15.08828876,0.0001479,53.2153,161.8545,105.7354,254.3802,0.00022045,3.221e-05,0.0,0 STARLINK-5429,1 54801U 22175AV  24051.63010062  .00003221  00000-0  22045-3 0  9999,2 54801  53.2153 161.8545 0001479 105.7354 254.3802 15.08828876 66992,6917.914,95.438,540.803,538.756,0.0
54801.0,STARLINK-5429,PAYLOAD,2024-02-21 11:47:22,15.08836329,0.0001521,53.2156,157.9889,103.6259,256.4902,0.00046738,7.157e-05,0.0,0 STARLINK-5429,1 54801U 22175AV  24052.49122813  .00007157  00000-0  46738-3 0  9999,2 54801  53.2156 157.9889 0001521 103.6259 256.4902 15.08836329 64962,6917.892,95.438,540.809,538.704,0.0
54801.0,STARLINK-5429,PAYLOAD,2024-02-21 13:22:45,15.08832769,0.0001518,53.2161,157.6904,103.1344,256.9818,0.00029018,4.332e-05,0.0,0 STARLINK-5429,1 54801U 22175AV  24052.55746923  .00004332  00000-0  29018-3 0  9994,2 54801  53.2161 157.6904 0001518 103.1344 256.9818 15.08832769 67136,6917.902,95.438,540.818,538.717,0.0
54801.0,STARLINK-5429,PAYLOAD,2024-02-22 11:38:08,15.08865694,0.0001537,53.2174,153.5275,99.8462,260.2703,0.00076035,0.00011842,0.0,0 STARLINK-5429,1 54801U 22175AV  24053.48481816  .00011842  00000-0  76035-3 0  9999,2 54801  53.2174 153.5275 0001537  99.8462 260.2703 15.08865694 65119,6917.802,95.436,540.73,538.604,0.0
54801.0,STARLINK-5429,PAYLOAD,2024-02-22 13:13:31,15.08870795,0.0001493,53.2173,153.2307,94.0615,266.0548,0.00087744,0.00013716,0.0,0 STARLINK-5429,1 54801U 22175AV  24053.55105650  .00013716  00000-0  87744-3 0  9997,2 54801  53.2173 153.2307 0001493  94.0615 266.0548 15.08870795 67288,6917.786,95.436,540.684,538.618,0.0
54801.0,STARLINK-5429,PAYLOAD,2024-02-23 11:28:54,15.08860403,0.0001339,53.2167,149.0661,91.9236,268.1909,0.00019172,2.766e-05,0.0,0 STARLINK-5429,1 54801U 22175AV  24054.47840717  .00002766  00000-0  19172-3 0  9992,2 54801  53.2167 149.0661 0001339  91.9236 268.1909 15.08860403 65266,6917.818,95.436,540.609,538.757,0.0
54801.0,STARLINK-5429,PAYLOAD,2024-02-23 22:36:36,15.08857606,0.0001236,53.2163,146.9851,72.7905,287.3222,0.00062652,9.702e-05,0.0,0 STARLINK-5429,1 54801U 22175AV  24054.94208486  .00009702  00000-0  62652-3 0  9993,2 54801  53.2163 146.9851 0001236  72.7905 287.3222 15.08857606 67494,6917.827,95.436,540.547,538.837,0.0
54801.0,STARLINK-5429,PAYLOAD,2024-02-24 04:58:08,15.0884845,0.0001665,53.2182,145.8008,108.7574,251.3599,0.00038902,5.91e-05,0.0,0 STARLINK-5429,1 54801U 22175AV  24055.20704597  .00005910  00000-0  38902-3 0  9995,2 54801  53.2182 145.8008 0001665 108.7574 251.3599 15.08848450 65375,6917.855,95.437,540.871,538.568,0.0
54801.0,STARLINK-5429,PAYLOAD,2024-02-24 12:55:04,15.08843554,0.0001509,53.2183,144.3118,96.7715,263.3449,-0.00016303,-2.882e-05,0.0,0 STARLINK-5429,1 54801U 22175AV  24055.53824891 -.00002882  00000-0 -16303-3 0  9999,2 54801  53.2183 144.3118 0001509  96.7715 263.3449 15.08843554 65425,6917.87,95.437,540.778,538.691,0.0
54801.0,STARLINK-5429,PAYLOAD,2024-02-25 12:45:51,15.08846604,0.0001624,53.2179,139.8502,115.1508,244.9653,0.0001067,1.411e-05,0.0,0 STARLINK-5429,1 54801U 22175AV  24056.53184593  .00001411  00000-0  10670-3 0  9994,2 54801  53.2179 139.8502 0001624 115.1508 244.9653 15.08846604 67737,6917.86,95.437,540.849,538.602,0.0
54801.0,STARLINK-5429,PAYLOAD,2024-02-26 11:01:15,15.08843958,0.0001551,53.2168,135.6884,103.8447,256.2718,0.00012325,1.674e-05,0.0,0 STARLINK-5429,1 54801U 22175AV  24057.45920653  .00001674  00000-0  12325-3 0  9991,2 54801  53.2168 135.6884 0001551 103.8447 256.2718 15.08843958 65710,6917.868,95.437,540.806,538.66,0.0
54801.0,STARLINK-5429,PAYLOAD,2024-02-26 14:12:01,15.08847295,0.0001268,53.2154,135.0899,81.1572,278.9564,0.00017037,2.425e-05,0.0,0 STARLINK-5429,1 54801U 22175AV  24057.59168479  .00002425  00000-0  17037-3 0  9996,2 54801  53.2154 135.0899 0001268  81.1572 278.9564 15.08847295 67896,6917.858,95.437,540.6,538.846,0.0
54801.0,STARLINK-5429,PAYLOAD,2024-02-27 10:52:02,15.08838943,0.0001264,53.2155,131.2274,90.4239,269.6898,2.1557e-05,5.5e-07,0.0,0 STARLINK-5429,1 54801U 22175AV  24058.45280956  .00000055  00000-0  21557-4 0  9997,2 54801  53.2155 131.2274 0001264  90.4239 269.6898 15.08838943 65863,6917.884,95.438,540.623,538.874,0.0
54801.0,STARLINK-5429,PAYLOAD,2024-02-27 12:27:25,15.08844946,0.0001505,53.2155,130.929,90.4464,269.67,7.7483e-05,9.46e-06,0.0,0 STARLINK-5429,1 54801U 22175AV  24058.51904625  .00000946  00000-0  77483-4 0  9998,2 54801  53.2155 130.9290 0001505  90.4464 269.6700 15.08844946 68039,6917.865,95.437,540.771,538.689,0.0
54801.0,STARLINK-5429,PAYLOAD,2024-02-27 21:59:44,15.08842333,0.0001468,53.2154,129.144,86.2053,273.9107,9.0352e-05,1.15e-05,0.0,0 STARLINK-5429,1 54801U 22175AV  24058.91648825  .00001150  00000-0  90352-4 0  9997,2 54801  53.2154 129.1440 0001468  86.2053 273.9107 15.08842333 68093,6917.873,95.437,540.754,538.723,0.0
54801.0,STARLINK-5429,PAYLOAD,2024-02-28 10:42:49,15.08840128,0.0001467,53.2174,126.7616,87.8104,272.3056,1.7835e-05,-4e-08,0.0,0 STARLINK-5429,1 54801U 22175AV  24059.44641192 -.00000004  00000-0  17835-4 0  9999,2 54801  53.2174 126.7616 0001467  87.8104 272.3056 15.08840128 68171,6917.88,95.438,540.76,538.73,0.0
54801.0,STARLINK-5429,PAYLOAD,2024-02-29 04:12:04,15.08840124,0.0001466,53.2159,123.4915,92.9364,267.1796,2.8865e-06,-2.42e-06,0.0,0 STARLINK-5429,1 54801U 22175AV  24060.17505421 -.00000242  00000-0  28865-5 0  9995,2 54801  53.2159 123.4915 0001466  92.9364 267.1796 15.08840124 66126,6917.88,95.438,540.759,538.731,0.0
54801.0,STARLINK-5429,PAYLOAD,2024-02-29 10:33:37,15.08838043,0.0001445,53.2161,122.3039,87.1949,272.9209,2.0554e-05,3.9e-07,0.0,0 STARLINK-5429,1 54801U 22175AV  24060.44001531  .00000039  00000-0  20554-4 0  9997,2 54801  53.2161 122.3039 0001445  87.1949 272.9209 15.08838043 68320,6917.886,95.438,540.751,538.752,0.0
54801.0,STARLINK-5429,PAYLOAD,2024-03-01 10:24:24,15.08839131,0.0001511,53.2161,117.8422,89.8077,270.3089,0.00011312,1.513e-05,0.0,0 STARLINK-5429,1 54801U 22175AV  24061.43361404  .00001513  00000-0  11312-3 0  9994,2 54801  53.2161 117.8422 0001511  89.8077 270.3089 15.08839131 66314,6917.883,95.438,540.793,538.703,0.0
54801.0,STARLINK-5429,PAYLOAD,2024-03-01 13:35:10,15.08845638,0.0001537,53.2158,117.2472,88.5638,271.5531,4.2117e-05,3.82e-06,0.0,0 STARLINK-5429,1 54801U 22175AV  24061.56609181  .00000382  00000-0  42117-4 0  9996,2 54801  53.2158 117.2472 0001537  88.5638 271.5531 15.08845638 68491,6917.863,95.437,540.791,538.665,0.0
54801.0,STARLINK-5429,PAYLOAD,2024-03-02 10:15:11,15.08842347,0.000156,53.2158,113.3808,89.2399,270.8772,0.00010197,1.335e-05,0.0,0 STARLINK-5429,1 54801U 22175AV  24062.42721337  .00001335  00000-0  10197-3 0  9991,2 54801  53.2158 113.3808 0001560  89.2399 270.8772 15.08842347 68627,6917.873,95.437,540.817,538.659,0.0
54801.0,STARLINK-5429,PAYLOAD,2024-03-03 02:09:03,15.08841603,0.000184,53.2158,110.4084,95.5046,264.6156,-4.7732e-05,-1.048e-05,0.0,0 STARLINK-5429,1 54801U 22175AV  24063.08961956 -.00001048  00000-0 -47732-4 0  9996,2 54801  53.2158 110.4084 0001840  95.5046 264.6156 15.08841603 66563,6917.875,95.437,541.013,538.468,0.0
54801.0,STARLINK-5429,PAYLOAD,2024-03-03 10:05:58,15.08837277,0.0001674,53.2176,108.9235,103.1585,256.9594,4.0547e-05,3.57e-06,0.0,0 STARLINK-5429,1 54801U 22175AV  24063.42081906  .00000357  00000-0  40547-4 0  9999,2 54801  53.2176 108.9235 0001674 103.1585 256.9594 15.08837277 68779,6917.889,95.438,540.912,538.596,0.0
54801.0,STARLINK-5429,PAYLOAD,2024-03-04 09:56:44,15.08851503,0.0001564,53.217,104.4622,101.9276,258.1891,0.00010659,1.409e-05,0.0,0 STARLINK-5429,1 54801U 22175AV  24064.41440895  .00001409  00000-0  10659-3 0  9994,2 54801  53.2170 104.4622 0001564 101.9276 258.1891 15.08851503 66764,6917.845,95.437,540.792,538.628,0.0
54801.0,STARLINK-5429,PAYLOAD,2024-03-04 19:29:03,15.08846678,0.0001276,53.2165,102.6762,85.4032,274.7106,3.1476e-05,2.13e-06,0.0,0 STARLINK-5429,1 54801U 22175AV  24064.81185147  .00000213  00000-0  31476-4 0  9997,2 54801  53.2165 102.6762 0001276  85.4032 274.7106 15.08846678 66826,6917.86,95.437,540.608,538.842,0.0
54801.0,STARLINK-5429,PAYLOAD,2024-03-05 11:22:56,15.08823102,0.0001673,53.2161,99.7031,82.5832,277.535,-0.00014638,-2.616e-05,0.0,0 STARLINK-5429,1 54801U 22175AV  24065.47427015 -.00002616  00000-0 -14638-3 0  9994,2 54801  53.2161  99.7031 0001673  82.5832 277.5350 15.08823102 69084,6917.932,95.439,540.954,538.64,0.0
